NORAD_CAT_ID,OBJECT_NAME,OBJECT_TYPE,EPOCH,MEAN_MOTION,ECCENTRICITY,INCLINATION,RA_OF_ASC_NODE,ARG_OF_PERICENTER,MEAN_ANOMALY,BSTAR,MEAN_MOTION_DOT,MEAN_MOTION_DDOT,TLE_LINE0,TLE_LINE1,TLE_LINE2,SEMIMAJOR_AXIS,PERIOD,APOGEE,PERIGEE,DECAYED
52634.0,STARLINK-3974,PAYLOAD,2023-09-21 12:13:28,15.08848214,0.0001658,53.2195,350.2191,63.3416,296.7746,-0.0001024,-1.918e-05,0.0,0 STARLINK-3974,1 52634U 22052AN  23264.50935541 -.00001918  00000-0 -10240-3 0  9991,2 52634  53.2195 350.2191 0001658  63.3416 296.7746 15.08848214 75094,6917.855,95.437,540.867,538.573,0.0
52634.0,STARLINK-3974,PAYLOAD,2023-09-21 23:21:09,15.0885011,0.0001652,53.2192,348.1372,63.348,296.7682,-5.235e-05,-1.121e-05,0.0,0 STARLINK-3974,1 52634U 22052AN  23264.97303066 -.00001121  00000-0 -52350-4 0  9998,2 52634  53.2192 348.1372 0001652  63.3480 296.7682 15.08850110 75540,6917.849,95.437,540.857,538.572,0.0
52634.0,STARLINK-3974,PAYLOAD,2023-09-22 10:28:51,15.08886841,0.0001242,53.2191,346.0569,59.4304,300.6811,-0.00060168,-9.863e-05,0.0,0 STARLINK-3974,1 52634U 22052AN  23265.43670568 -.00009863  00000-0 -60168-3 0  9990,2 52634  53.2191 346.0569 0001242  59.4304 300.6811 15.08886841 75617,6917.737,95.435,540.461,538.743,0.0
52634.0,STARLINK-3974,PAYLOAD,2023-09-22 12:04:15,15.08837854,0.0001603,53.2198,345.7586,75.5428,284.5742,0.00016679,2.367e-05,0.0,0 STARLINK-3974,1 52634U 22052AN  23265.50295563  .00002367  00000-0  16679-3 0  9994,2 52634  53.2198 345.7586 0001603  75.5428 284.5742 15.08837854 75248,6917.887,95.438,540.861,538.643,0.0
52634.0,STARLINK-3974,PAYLOAD,2023-09-23 10:19:39,15.08842273,0.0001442,53.2192,341.5942,81.1901,278.9254,6.7859e-05,7.92e-06,0.0,0 STARLINK-3974,1 52634U 22052AN  23266.43031630  .00000792  00000-0  67859-4 0  9997,2 52634  53.2192 341.5942 0001442  81.1901 278.9254 15.08842273 75383,6917.873,95.437,540.736,538.741,0.0
52634.0,STARLINK-3974,PAYLOAD,2023-09-24 10:10:26,15.08836887,0.0001422,53.2195,337.1348,92.2499,267.8656,7.2959e-05,8.73e-06,0.0,0 STARLINK-3974,1 52634U 22052AN  23267.42391920  .00000873  00000-0  72959-4 0  9995,2 52634  53.2195 337.1348 0001422  92.2499 267.8656 15.08836887 75916,6917.89,95.438,540.739,538.771,0.0
52634.0,STARLINK-3974,PAYLOAD,2023-09-24 11:45:49,15.08843525,0.000162,53.2194,336.8363,104.2879,255.8293,4.5891e-05,4.42e-06,0.0,0 STARLINK-3974,1 52634U 22052AN  23267.49015563  .00000442  00000-0  45891-4 0  9995,2 52634  53.2194 336.8363 0001620 104.2879 255.8293 15.08843525 75544,6917.87,95.437,540.855,538.614,0.0
52634.0,STARLINK-3974,PAYLOAD,2023-09-25 10:01:13,15.0883998,0.0001505,53.2195,332.6736,102.0335,258.0826,3.7986e-05,3.17e-06,0.0,0 STARLINK-3974,1 52634U 22052AN  23268.41751906  .00000317  00000-0  37986-4 0  9993,2 52634  53.2195 332.6736 0001505 102.0335 258.0826 15.08839980 76063,6917.88,95.438,540.787,538.704,0.0
52634.0,STARLINK-3974,PAYLOAD,2023-09-25 11:36:36,15.08842353,0.0001336,53.2179,332.377,80.057,280.0573,7.7194e-05,9.41e-06,0.0,0 STARLINK-3974,1 52634U 22052AN  23268.48375774  .00000941  00000-0  77194-4 0  9993,2 52634  53.2179 332.3770 0001336  80.0570 280.0573 15.08842353 75698,6917.873,95.437,540.662,538.814,0.0
52634.0,STARLINK-3974,PAYLOAD,2023-09-26 13:02:46,15.08847601,0.0001571,53.2191,327.6193,92.1438,267.9734,0.00010659,1.409e-05,0.0,0 STARLINK-3974,1 52634U 22052AN  23269.54359519  .00001409  00000-0  10659-3 0  9992,2 52634  53.2191 327.6193 0001571  92.1438 267.9734 15.08847601 75858,6917.857,95.437,540.809,538.635,0.0
52634.0,STARLINK-3974,PAYLOAD,2023-09-27 09:42:48,15.08839354,0.0001655,53.219,323.7521,94.3416,265.7765,4.6432e-05,4.51e-06,0.0,0 STARLINK-3974,1 52634U 22052AN  23270.40472281  .00000451  00000-0  46432-4 0  9996,2 52634  53.2190 323.7521 0001655  94.3416 265.7765 15.08839354 76365,6917.882,95.438,540.892,538.602,0.0
52634.0,STARLINK-3974,PAYLOAD,2023-09-28 09:33:34,15.08849723,0.0001609,53.2187,319.2878,105.2384,254.8787,-7.4318e-06,-4.06e-06,0.0,0 STARLINK-3974,1 52634U 22052AN  23271.39831644 -.00000406  00000-0 -74318-5 0  9994,2 52634  53.2187 319.2878 0001609 105.2384 254.8787 15.08849723 76512,6917.851,95.437,540.829,538.603,0.0
52634.0,STARLINK-3974,PAYLOAD,2023-09-28 12:44:20,15.08847145,0.0001623,53.219,318.6902,102.3705,257.7469,4.6725e-05,4.56e-06,0.0,0 STARLINK-3974,1 52634U 22052AN  23271.53079576  .00000456  00000-0  46725-4 0  9991,2 52634  53.2190 318.6902 0001623 102.3705 257.7469 15.08847145 76153,6917.859,95.437,540.846,538.601,0.0
52634.0,STARLINK-3974,PAYLOAD,2023-09-29 09:24:22,15.08835335,0.0001667,53.2179,314.8318,91.7545,268.3638,-6.0984e-06,-3.85e-06,0.0,0 STARLINK-3974,1 52634U 22052AN  23272.39192728 -.00000385  00000-0 -60984-5 0  9998,2 52634  53.2179 314.8318 0001667  91.7545 268.3638 15.08835335 76660,6917.895,95.438,540.913,538.606,0.0
52634.0,STARLINK-3974,PAYLOAD,2023-09-29 23:42:50,15.08846455,0.0001749,53.2185,312.1522,122.5765,237.5396,-3.7612e-05,-8.87e-06,0.0,0 STARLINK-3974,1 52634U 22052AN  23272.98808083 -.00000887  00000-0 -37612-4 0  9999,2 52634  53.2185 312.1522 0001749 122.5765 237.5396 15.08846455 76757,6917.861,95.437,540.936,538.516,0.0
52634.0,STARLINK-3974,PAYLOAD,2023-09-30 09:15:08,15.08854648,0.0001396,53.2174,310.3698,91.554,268.5612,-1.2473e-05,-4.87e-06,0.0,0 STARLINK-3974,1 52634U 22052AN  23273.38551528 -.00000487  00000-0 -12473-4 0  9997,2 52634  53.2174 310.3698 0001396  91.5540 268.5612 15.08854648 76818,6917.836,95.437,540.666,538.735,0.0
52634.0,STARLINK-3974,PAYLOAD,2023-10-01 02:44:24,15.08828926,0.0001409,53.2166,307.0997,88.6782,271.4372,9.4479e-06,-1.38e-06,0.0,0 STARLINK-3974,1 52634U 22052AN  23274.11417138 -.00000138  00000-0  94479-5 0  9996,2 52634  53.2166 307.0997 0001409  88.6782 271.4372 15.08828926 76922,6917.914,95.438,540.754,538.805,0.0
52634.0,STARLINK-3974,PAYLOAD,2023-10-01 09:05:56,15.08832006,0.0001497,53.2169,305.9102,93.6156,266.5007,8.6792e-06,-1.5e-06,0.0,0 STARLINK-3974,1 52634U 22052AN  23274.37913045 -.00000150  00000-0  86792-5 0  9995,2 52634  53.2169 305.9102 0001497  93.6156 266.5007 15.08832006 76584,6917.905,95.438,540.805,538.734,0.0
52634.0,STARLINK-3974,PAYLOAD,2023-10-01 18:38:15,15.08832529,0.0001498,53.2168,304.127,97.2455,262.8707,1.2966e-06,-2.67e-06,0.0,0 STARLINK-3974,1 52634U 22052AN  23274.77657175 -.00000267  00000-0  12966-5 0  9999,2 52634  53.2168 304.1270 0001498  97.2455 262.8707 15.08832529 76646,6917.903,95.438,540.805,538.732,0.0
52634.0,STARLINK-3974,PAYLOAD,2023-10-02 08:56:44,15.08837215,0.000157,53.2177,301.4512,97.2637,262.8534,-1.9197e-05,-5.93e-06,0.0,0 STARLINK-3974,1 52634U 22052AN  23275.37273285 -.00000593  00000-0 -19197-4 0  9997,2 52634  53.2177 301.4512 0001570  97.2637 262.8534 15.08837215 77116,6917.889,95.438,540.84,538.668,0.0
52634.0,STARLINK-3974,PAYLOAD,2023-10-02 18:29:02,15.08839755,0.0001586,53.218,299.6671,97.2855,262.8318,-3.7617e-05,-8.87e-06,0.0,0 STARLINK-3974,1 52634U 22052AN  23275.77017234 -.00000887  00000-0 -37617-4 0  9994,2 52634  53.2180 299.6671 0001586  97.2855 262.8318 15.08839755 76797,6917.881,95.438,540.843,538.649,0.0
52634.0,STARLINK-3974,PAYLOAD,2023-10-03 10:22:53,15.08840363,0.0001492,53.2175,296.6927,91.4448,268.6715,0.00019395,2.8e-05,0.0,0 STARLINK-3974,1 52634U 22052AN  23276.43256933  .00002800  00000-0  19395-3 0  9996,2 52634  53.2175 296.6927 0001492  91.4448 268.6715 15.08840363 77278,6917.879,95.438,540.776,538.712,0.0
52634.0,STARLINK-3974,PAYLOAD,2023-10-03 11:58:16,15.08844743,0.0001548,53.2176,296.395,93.9737,266.1432,0.00021468,3.131e-05,0.0,0 STARLINK-3974,1 52634U 22052AN  23276.49880649  .00003131  00000-0  21468-3 0  9991,2 52634  53.2176 296.3950 0001548  93.9737 266.1432 15.08844743 76906,6917.866,95.437,540.802,538.66,0.0
52634.0,STARLINK-3974,PAYLOAD,2023-10-04 08:38:18,15.08836471,0.0001546,53.2176,292.5279,92.1401,267.9769,7.2301e-05,8.63e-06,0.0,0 STARLINK-3974,1 52634U 22052AN  23277.35993679  .00000863  00000-0  72301-4 0  9997,2 52634  53.2176 292.5279 0001546  92.1401 267.9769 15.08836471 77413,6917.891,95.438,540.826,538.687,0.0
52634.0,STARLINK-3974,PAYLOAD,2023-10-04 18:10:36,15.08845326,0.0001674,53.2171,290.7442,87.2568,272.8616,0.00012453,1.695e-05,0.0,0 STARLINK-3974,1 52634U 22052AN  23277.75737068  .00001695  00000-0  12453-3 0  9994,2 52634  53.2171 290.7442 0001674  87.2568 272.8616 15.08845326 77472,6917.864,95.437,540.887,538.571,0.0
52634.0,STARLINK-3974,PAYLOAD,2023-10-05 02:07:32,15.08840013,0.0001739,53.217,289.2575,81.6925,278.4265,5.1436e-05,5.31e-06,0.0,0 STARLINK-3974,1 52634U 22052AN  23278.08857610  .00000531  00000-0  51436-4 0  9990,2 52634  53.2170 289.2575 0001739  81.6925 278.4265 15.08840013 77524,6917.88,95.438,540.948,538.542,0.0
52634.0,STARLINK-3974,PAYLOAD,2023-10-05 10:04:27,15.08851594,0.0001561,53.2172,287.7697,88.6982,271.4189,5.8233e-05,6.39e-06,0.0,0 STARLINK-3974,1 52634U 22052AN  23278.41976753  .00000639  00000-0  58233-4 0  9998,2 52634  53.2172 287.7697 0001561  88.6982 271.4189 15.08851594 77576,6917.845,95.437,540.79,538.63,0.0
52634.0,STARLINK-3974,PAYLOAD,2023-10-05 18:01:23,15.08846026,0.0001469,53.216,286.2824,88.7528,271.3632,-1.0807e-05,-4.6e-06,0.0,0 STARLINK-3974,1 52634U 22052AN  23278.75097076 -.00000460  00000-0 -10807-4 0  9996,2 52634  53.2160 286.2824 0001469  88.7528 271.3632 15.08846026 77625,6917.862,95.437,540.743,538.711,0.0
52634.0,STARLINK-3974,PAYLOAD,2023-10-06 00:22:56,15.08838508,0.0001727,53.2158,285.0929,86.4093,273.7096,5.7805e-05,6.32e-06,0.0,0 STARLINK-3974,1 52634U 22052AN  23279.01593614  .00000632  00000-0  57805-4 0  9993,2 52634  53.2158 285.0929 0001727  86.4093 273.7096 15.08838508 77664,6917.885,95.438,540.945,538.555,0.0
52634.0,STARLINK-3974,PAYLOAD,2023-10-06 06:44:29,15.08840998,0.0001727,53.2172,283.9037,86.3801,273.7389,2.6757e-05,1.38e-06,0.0,0 STARLINK-3974,1 52634U 22052AN  23279.28089613  .00000138  00000-0  26757-4 0  9994,2 52634  53.2172 283.9037 0001727  86.3801 273.7389 15.08840998 77327,6917.877,95.437,540.937,538.548,0.0
